[{"OBJECT_NAME":"STARLINK-31720","OBJECT_ID":"2024-071P","EPOCH":"2026-03-09T02:58:07.137408","MEAN_MOTION":15.27582537,"ECCENTRICITY":0.00033943,"INCLINATION":43.0029,"RA_OF_ASC_NODE":343.4073,"ARG_OF_PERICENTER":263.6483,"MEAN_ANOMALY":96.3983,"EPHEMERIS_TYPE":0,"CLASSIFICATION_TYPE":"U","NORAD_CAT_ID":59497,"ELEMENT_SET_NO":999,"REV_AT_EPOCH":10811,"BSTAR":4.4134016e-5,"MEAN_MOTION_DOT":9.52e-6,"MEAN_MOTION_DDOT":0},{"OBJECT_NAME":"CZ-6A DEB","OBJECT_ID":"2022-151CC","EPOCH":"2026-03-09T19:21:24.185952","MEAN_MOTION":15.21292269,"ECCENTRICITY":0.00294338,"INCLINATION":98.6347,"RA_OF_ASC_NODE":160.1892,"ARG_OF_PERICENTER":145.6687,"MEAN_ANOMALY":214.6455,"EPHEMERIS_TYPE":0,"CLASSIFICATION_TYPE":"U","NORAD_CAT_ID":54333,"ELEMENT_SET_NO":999,"REV_AT_EPOCH":17712,"BSTAR":0.0073643753,"MEAN_MOTION_DOT":0.00170206,"MEAN_MOTION_DDOT":0}]
